[{"OBJECT_NAME":"STARLINK-30287","OBJECT_ID":"2023-129M","EPOCH":"2026-03-09T03:42:02.676960","MEAN_MOTION":15.26742719,"ECCENTRICITY":0.00018099,"INCLINATION":43.0029,"RA_OF_ASC_NODE":120.6792,"ARG_OF_PERICENTER":270.9354,"MEAN_ANOMALY":89.129,"EPHEMERIS_TYPE":0,"CLASSIFICATION_TYPE":"U","NORAD_CAT_ID":57709,"ELEMENT_SET_NO":999,"REV_AT_EPOCH":14060,"BSTAR":2.6508797e-5,"MEAN_MOTION_DOT":4.51e-6,"MEAN_MOTION_DDOT":0},{"OBJECT_NAME":"OBJECT B","OBJECT_ID":"2024-092B","EPOCH":"2026-03-09T22:35:16.756224","MEAN_MOTION":15.26654665,"ECCENTRICITY":0.00097063,"INCLINATION":97.6334,"RA_OF_ASC_NODE":195.5822,"ARG_OF_PERICENTER":166.5945,"MEAN_ANOMALY":193.5553,"EPHEMERIS_TYPE":0,"CLASSIFICATION_TYPE":"U","NORAD_CAT_ID":59774,"ELEMENT_SET_NO":999,"REV_AT_EPOCH":10038,"BSTAR":0.00052893964,"MEAN_MOTION_DOT":0.00013825,"MEAN_MOTION_DDOT":0}]
